{
  "type": "FeatureCollection",
  "features": [
    {
      "type": "Feature",
      "properties": {
        "norad_id": 37836,
        "name": "EUTELSAT 16A",
        "group": "eutelsat",
        "lat": 0.07517807493653375,
        "lon": 90.28658489136943,
        "alt_km": 35810.93958596399,
        "timestamp": "2025-12-24T22:42:21.693591+00:00",
        "meta_object_name": "EUTELSAT 16A",
        "meta_object_id": "2011-057A",
        "meta_epoch": "2025-12-24T06:19:36.564960",
        "meta_mean_motion": 1.00270821,
        "meta_eccentricity": 0.00058449,
        "meta_inclination": 0.0567,
        "meta_ra_of_asc_node": 347.0894,
        "meta_arg_of_pericenter": 287.8532,
        "meta_mean_anomaly": 288.9864,
        "meta_ephemeris_type": 0,
        "meta_classification_type": "U",
        "meta_norad_cat_id": 37836,
        "meta_element_set_no": 999,
        "meta_rev_at_epoch": 557,
        "meta_bstar": 0,
        "meta_mean_motion_dot": 1.25e-06,
        "meta_mean_motion_ddot": 0,
        "tle_line1": "1 37836U 11057A   25358.26361765  .00000125  00000+0  00000+0 0  9996",
        "tle_line2": "2 37836   0.0567 347.0894 0005844 287.8532 288.9864  1.00270821  5571"
      },
      "geometry": {
        "type": "Point",
        "coordinates": [
          90.28658489136943,
          0.07517807493653375
        ]
      }
    },
    {
      "type": "Feature",
      "properties": {
        "norad_id": 38992,
        "name": "EUTELSAT 21B",
        "group": "eutelsat",
        "lat": 0.08311889377431951,
        "lon": 95.87614605944844,
        "alt_km": 35800.02029094973,
        "timestamp": "2025-12-24T22:42:21.693603+00:00",
        "meta_object_name": "EUTELSAT 21B",
        "meta_object_id": "2012-062B",
        "meta_epoch": "2025-12-24T02:22:38.584416",
        "meta_mean_motion": 1.00270674,
        "meta_eccentricity": 0.00032472,
        "meta_inclination": 0.0663,
        "meta_ra_of_asc_node": 347.5657,
        "meta_arg_of_pericenter": 290.7668,
        "meta_mean_anomaly": 231.7869,
        "meta_ephemeris_type": 0,
        "meta_classification_type": "U",
        "meta_norad_cat_id": 38992,
        "meta_element_set_no": 999,
        "meta_rev_at_epoch": 4807,
        "meta_bstar": 0,
        "meta_mean_motion_dot": 1.51e-06,
        "meta_mean_motion_ddot": 0,
        "tle_line1": "1 38992U 12062B   25358.09905769  .00000151  00000+0  00000+0 0  9995",
        "tle_line2": "2 38992   0.0663 347.5657 0003247 290.7668 231.7869  1.00270674 48071"
      },
      "geometry": {
        "type": "Point",
        "coordinates": [
          95.87614605944844,
          0.08311889377431951
        ]
      }
    },
    {
      "type": "Feature",
      "properties": {
        "norad_id": 39020,
        "name": "EUTELSAT 70B",
        "group": "eutelsat",
        "lat": 0.0356924163444967,
        "lon": 144.74484484983432,
        "alt_km": 35792.092545078594,
        "timestamp": "2025-12-24T22:42:21.693622+00:00",
        "meta_object_name": "EUTELSAT 70B",
        "meta_object_id": "2012-069A",
        "meta_epoch": "2025-12-24T04:52:29.909280",
        "meta_mean_motion": 1.00271791,
        "meta_eccentricity": 0.00042241,
        "meta_inclination": 0.0624,
        "meta_ra_of_asc_node": 345.4216,
        "meta_arg_of_pericenter": 268.89,
        "meta_mean_anomaly": 342.2873,
        "meta_ephemeris_type": 0,
        "meta_classification_type": "U",
        "meta_norad_cat_id": 39020,
        "meta_element_set_no": 999,
        "meta_rev_at_epoch": 4775,
        "meta_bstar": 0,
        "meta_mean_motion_dot": -2.2e-07,
        "meta_mean_motion_ddot": 0,
        "tle_line1": "1 39020U 12069A   25358.20312395 -.00000022  00000+0  00000+0 0  9993",
        "tle_line2": "2 39020   0.0624 345.4216 0004224 268.8900 342.2873  1.00271791 47758"
      },
      "geometry": {
        "type": "Point",
        "coordinates": [
          144.74484484983432,
          0.0356924163444967
        ]
      }
    },
    {
      "type": "Feature",
      "properties": {
        "norad_id": 39122,
        "name": "EUTELSAT 117 WEST A",
        "group": "eutelsat",
        "lat": -0.011092015622858256,
        "lon": -42.47577153289702,
        "alt_km": 35777.8348993033,
        "timestamp": "2025-12-24T22:42:21.693650+00:00",
        "meta_object_name": "EUTELSAT 117 WEST A",
        "meta_object_id": "2013-012A",
        "meta_epoch": "2025-12-24T05:59:38.935680",
        "meta_mean_motion": 1.00270856,
        "meta_eccentricity": 0.00027022,
        "meta_inclination": 0.0212,
        "meta_ra_of_asc_node": 315.8124,
        "meta_arg_of_pericenter": 319.5212,
        "meta_mean_anomaly": 150.8139,
        "meta_ephemeris_type": 0,
        "meta_classification_type": "U",
        "meta_norad_cat_id": 39122,
        "meta_element_set_no": 999,
        "meta_rev_at_epoch": 4667,
        "meta_bstar": 0,
        "meta_mean_motion_dot": 8e-08,
        "meta_mean_motion_ddot": 0,
        "tle_line1": "1 39122U 13012A   25358.24975620  .00000008  00000+0  00000+0 0  9998",
        "tle_line2": "2 39122   0.0212 315.8124 0002702 319.5212 150.8139  1.00270856 46671"
      },
      "geometry": {
        "type": "Point",
        "coordinates": [
          -42.47577153289702,
          -0.011092015622858256
        ]
      }
    },
    {
      "type": "Feature",
      "properties": {
        "norad_id": 39163,
        "name": "EUTELSAT 7B",
        "group": "eutelsat",
        "lat": 0.08365192095740207,
        "lon": 81.33531719093268,
        "alt_km": 35795.46804785199,
        "timestamp": "2025-12-24T22:42:21.693674+00:00",
        "meta_object_name": "EUTELSAT 7B",
        "meta_object_id": "2013-022A",
        "meta_epoch": "2025-12-24T06:17:06.804384",
        "meta_mean_motion": 1.00271515,
        "meta_eccentricity": 0.00045642,
        "meta_inclination": 0.0658,
        "meta_ra_of_asc_node": 7.5423,
        "meta_arg_of_pericenter": 314.8563,
        "meta_mean_anomaly": 231.9115,
        "meta_ephemeris_type": 0,
        "meta_classification_type": "U",
        "meta_norad_cat_id": 39163,
        "meta_element_set_no": 999,
        "meta_rev_at_epoch": 4619,
        "meta_bstar": 0,
        "meta_mean_motion_dot": 6.9e-07,
        "meta_mean_motion_ddot": 0,
        "tle_line1": "1 39163U 13022A   25358.26188431  .00000069  00000+0  00000+0 0  9999",
        "tle_line2": "2 39163   0.0658   7.5423 0004564 314.8563 231.9115  1.00271515 46197"
      },
      "geometry": {
        "type": "Point",
        "coordinates": [
          81.33531719093268,
          0.08365192095740207
        ]
      }
    },
    {
      "type": "Feature",
      "properties": {
        "norad_id": 39612,
        "name": "EXPRESS-AT1",
        "group": "eutelsat",
        "lat": 0.0071522326480659495,
        "lon": 130.2966946231604,
        "alt_km": 35782.400849636295,
        "timestamp": "2025-12-24T22:42:21.693688+00:00",
        "meta_object_name": "EXPRESS-AT1",
        "meta_object_id": "2014-010A",
        "meta_epoch": "2025-12-24T02:18:38.733696",
        "meta_mean_motion": 1.00271168,
        "meta_eccentricity": 9.11e-05,
        "meta_inclination": 0.0142,
        "meta_ra_of_asc_node": 288.2114,
        "meta_arg_of_pericenter": 190.815,
        "meta_mean_anomaly": 64.5094,
        "meta_ephemeris_type": 0,
        "meta_classification_type": "U",
        "meta_norad_cat_id": 39612,
        "meta_element_set_no": 999,
        "meta_rev_at_epoch": 4306,
        "meta_bstar": 0,
        "meta_mean_motion_dot": 1e-06,
        "meta_mean_motion_ddot": 0,
        "tle_line1": "1 39612U 14010A   25358.09628164  .00000100  00000+0  00000+0 0  9995",
        "tle_line2": "2 39612   0.0142 288.2114 0000911 190.8150  64.5094  1.00271168 43068"
      },
      "geometry": {
        "type": "Point",
        "coordinates": [
          130.2966946231604,
          0.0071522326480659495
        ]
      }
    },
    {
      "type": "Feature",
      "properties": {
        "norad_id": 39613,
        "name": "EXPRESS-AT2",
        "group": "eutelsat",
        "lat": -0.018448884530368647,
        "lon": -145.85711722875152,
        "alt_km": 35782.68701435327,
        "timestamp": "2025-12-24T22:42:21.693700+00:00",
        "meta_object_name": "EXPRESS-AT2",
        "meta_object_id": "2014-010B",
        "meta_epoch": "2025-12-24T18:08:34.442880",
        "meta_mean_motion": 1.00271834,
        "meta_eccentricity": 0.0001555,
        "meta_inclination": 0.0179,
        "meta_ra_of_asc_node": 290.7595,
        "meta_arg_of_pericenter": 342.2022,
        "meta_mean_anomaly": 232.5688,
        "meta_ephemeris_type": 0,
        "meta_classification_type": "U",
        "meta_norad_cat_id": 39613,
        "meta_element_set_no": 999,
        "meta_rev_at_epoch": 4275,
        "meta_bstar": 0,
        "meta_mean_motion_dot": -2.6e-06,
        "meta_mean_motion_ddot": 0,
        "tle_line1": "1 39613U 14010B   25358.75595420 -.00000260  00000+0  00000+0 0  9995",
        "tle_line2": "2 39613   0.0179 290.7595 0001555 342.2022 232.5688  1.00271834 42757"
      },
      "geometry": {
        "type": "Point",
        "coordinates": [
          -145.85711722875152,
          -0.018448884530368647
        ]
      }
    }
  ]
}